{
"type": "FeatureCollection",
"name": "commercial_route_comparison",
"crs": { "type": "name", "properties": { "name": "urn:ogc:def:crs:OGC:1.3:CRS84" } },
"features": [
{ "type": "Feature", "properties": { "id": 1, "route_name": "Distance-Optimized (Standard GPS)", "nodes": 78 }, "geometry": { "type": "LineString", "coordinates": [ [ -96.7701542, 43.5583889 ], [ -96.7661544, 43.5583926 ], [ -96.7649781, 43.5583894 ], [ -96.7637155, 43.5583949 ], [ -96.7624682, 43.5583981 ], [ -96.7612193, 43.5583957 ], [ -96.7599842, 43.5584032 ], [ -96.758734, 43.5584209 ], [ -96.7585385, 43.5584205 ], [ -96.7575049, 43.5582169 ], [ -96.7567995, 43.557871 ], [ -96.7562398, 43.5575027 ], [ -96.752879, 43.555208 ], [ -96.7526332, 43.5550422 ], [ -96.7512586, 43.554099 ], [ -96.7508339, 43.553821 ], [ -96.749984, 43.553254 ], [ -96.7474864, 43.551556 ], [ -96.7468224, 43.5511895 ], [ -96.7454376, 43.5511938 ], [ -96.7440581, 43.551193 ], [ -96.742682, 43.5511981 ], [ -96.7413072, 43.5512024 ], [ -96.7398099, 43.5512077 ], [ -96.7392056, 43.5512072 ], [ -96.7383237, 43.5512112 ], [ -96.7370979, 43.551208 ], [ -96.7357298, 43.5512098 ], [ -96.7356642, 43.5499019 ], [ -96.7342284, 43.5499087 ], [ -96.7327871, 43.5499104 ], [ -96.7313052, 43.5499096 ], [ -96.7313021, 43.5486115 ], [ -96.7298177, 43.5485722 ], [ -96.7283287, 43.5485702 ], [ -96.728315, 43.5472991 ], [ -96.7268114, 43.5473079 ], [ -96.7247656, 43.5468935 ], [ -96.7241398, 43.5464899 ], [ -96.7238051, 43.5459918 ], [ -96.7238149, 43.5449876 ], [ -96.7238163, 43.5446766 ], [ -96.7238122, 43.5434555 ], [ -96.7238104, 43.5424593 ], [ -96.7237983, 43.541443 ], [ -96.7237835, 43.5404512 ], [ -96.7238061, 43.5366768 ], [ -96.7238081, 43.5356411 ], [ -96.7238092, 43.5345942 ], [ -96.7238139, 43.5335869 ], [ -96.7238137, 43.5335154 ], [ -96.7238114, 43.5321213 ], [ -96.723811, 43.5312282 ], [ -96.7238123, 43.5294095 ], [ -96.723475, 43.529409 ], [ -96.7235126, 43.5283305 ], [ -96.723564, 43.527701 ], [ -96.7233996, 43.5274968 ], [ -96.722997, 43.526377 ], [ -96.722991, 43.525392 ], [ -96.7210595, 43.5253844 ], [ -96.7210585, 43.5249207 ], [ -96.719272, 43.524655 ], [ -96.719272, 43.524068 ], [ -96.718657, 43.52362 ], [ -96.716861, 43.522884 ], [ -96.7152175, 43.5221218 ], [ -96.714529, 43.521614 ], [ -96.713547, 43.520861 ], [ -96.712071, 43.519667 ], [ -96.7112445, 43.519382 ], [ -96.7112429, 43.5184773 ], [ -96.7112559, 43.5170391 ], [ -96.7112688, 43.5169524 ], [ -96.7115197, 43.5161802 ], [ -96.7116748, 43.5153707 ], [ -96.7117318, 43.5147403 ], [ -96.7118469, 43.5142795 ] ] } },
{ "type": "Feature", "properties": { "id": 2, "route_name": "Time-Optimized (Commercial Haul)", "nodes": 75 }, "geometry": { "type": "LineString", "coordinates": [ [ -96.7701542, 43.5583889 ], [ -96.7661544, 43.5583926 ], [ -96.7649781, 43.5583894 ], [ -96.7637155, 43.5583949 ], [ -96.7624682, 43.5583981 ], [ -96.7612193, 43.5583957 ], [ -96.7599842, 43.5584032 ], [ -96.758734, 43.5584209 ], [ -96.7585385, 43.5584205 ], [ -96.7575049, 43.5582169 ], [ -96.7567995, 43.557871 ], [ -96.7562398, 43.5575027 ], [ -96.752879, 43.555208 ], [ -96.7526332, 43.5550422 ], [ -96.7512586, 43.554099 ], [ -96.7508339, 43.553821 ], [ -96.749984, 43.553254 ], [ -96.7474864, 43.551556 ], [ -96.7468224, 43.5511895 ], [ -96.7468118, 43.5498703 ], [ -96.7468071, 43.5485676 ], [ -96.7468023, 43.5472574 ], [ -96.7467893, 43.5459543 ], [ -96.7467746, 43.5446379 ], [ -96.7467717, 43.5439597 ], [ -96.7462244, 43.5439573 ], [ -96.7434081, 43.5439698 ], [ -96.7412619, 43.543944 ], [ -96.7398889, 43.5445439 ], [ -96.7385016, 43.5446651 ], [ -96.7370907, 43.5446697 ], [ -96.7356474, 43.5446736 ], [ -96.7342051, 43.5446794 ], [ -96.732761, 43.544677 ], [ -96.7313008, 43.5446891 ], [ -96.7313016, 43.5434553 ], [ -96.7313023, 43.5424571 ], [ -96.7313004, 43.5414387 ], [ -96.7313003, 43.5389711 ], [ -96.7313, 43.537702 ], [ -96.7312968, 43.536686 ], [ -96.7313038, 43.5357972 ], [ -96.7313008, 43.5348846 ], [ -96.7313041, 43.5339803 ], [ -96.7312872, 43.5330641 ], [ -96.7312894, 43.53215 ], [ -96.731293, 43.531243 ], [ -96.731293, 43.5303295 ], [ -96.73129, 43.5294222 ], [ -96.7312832, 43.5285406 ], [ -96.731289, 43.527599 ], [ -96.7312951, 43.5272541 ], [ -96.7312879, 43.525964 ], [ -96.7312873, 43.5257739 ], [ -96.7312844, 43.5248576 ], [ -96.7312891, 43.52416 ], [ -96.7312844, 43.5239499 ], [ -96.731288, 43.5221277 ], [ -96.7312776, 43.520761 ], [ -96.7312669, 43.5185204 ], [ -96.7312634, 43.5166798 ], [ -96.7312624, 43.5157928 ], [ -96.7312573, 43.514878 ], [ -96.7312547, 43.5139739 ], [ -96.7312374, 43.5130606 ], [ -96.7312326, 43.5117495 ], [ -96.7312301, 43.511644 ], [ -96.7312972, 43.51146 ], [ -96.7312918, 43.5110552 ], [ -96.7312764, 43.509179 ], [ -96.7311335, 43.5091978 ], [ -96.7275601, 43.5113713 ], [ -96.7218855, 43.5128354 ], [ -96.7166185, 43.5139681 ], [ -96.7118469, 43.5142795 ] ] } }
]
}
